TECHDEMOSAT-1 (TDS-1)   
1 40076U 14037H   26068.92236573  .00011104  00000+0  65800-3 0  9999
2 40076  98.3776  51.4583 0004745 234.8100 125.2683 15.11581991633227
STARLINK-4673           
1 53589U 22104B   26068.88535258 -.00000083  00000+0  12861-4 0  9998
2 53589  53.2167 243.2925 0001475  86.9655 273.1506 15.08840184195973
